start=new Date('2022-04-14T00:00:00.000Z').valueOf();
sats=[{"COUNTRY_CODE":"US","REV_AT_EPOCH":"8198","APOAPSIS":"548.500","GP_ID":"201174612","RCS_SIZE":"LARGE","RA_OF_ASC_NODE":"178.1656","TIME_SYSTEM":"UTC","NORAD_CAT_ID":"46681","OBJECT_TYPE":"PAYLOAD","PERIAPSIS":"545.936","SEMIMAJOR_AXIS":"6925.353","PERIOD":"95.592","ARG_OF_PERICENTER":"45.3654","OBJECT_ID":"2020-073M","FILE":"3400454","MEAN_MOTION":"15.06398441","MEAN_ELEMENT_THEORY":"SGP4","ELEMENT_SET_NO":"999","MEAN_ANOMALY":"314.7485","OBJECT_NAME":"STARLINK-1775","MEAN_MOTION_DOT":"0.00012279","TLE_LINE1":"1 46681U 20073M   22103.69338330  .00012279  00000-0  84179-3 0  9993","DECAY_DATE":null,"ECCENTRICITY":"0.00018510","REF_FRAME":"TEME","TLE_LINE2":"2 46681  53.0533 178.1656 0001851  45.3654 314.7485 15.06398441 81981","BSTAR":"0.00084179000000","CENTER_NAME":"EARTH","EPHEMERIS_TYPE":"0","EPOCH":"2022-04-13T16:38:28.317120","SITE":"AFETR","LAUNCH_DATE":"2020-10-18","MEAN_MOTION_DDOT":"0.0000000000000","CLASSIFICATION_TYPE":"U","INCLINATION":"53.0533"},{"TIME_SYSTEM":"UTC","RA_OF_ASC_NODE":"178.9305","OBJECT_TYPE":"PAYLOAD","NORAD_CAT_ID":"46682","APOAPSIS":"548.650","RCS_SIZE":"LARGE","GP_ID":"201142309","REV_AT_EPOCH":"8196","COUNTRY_CODE":"US","TLE_LINE1":"1 46682U 20073N   22103.52013936  .00003010  00000-0  22094-3 0  9999","MEAN_MOTION_DOT":"0.00003010","MEAN_ANOMALY":"312.6823","OBJECT_NAME":"STARLINK-1776","MEAN_ELEMENT_THEORY":"SGP4","MEAN_MOTION":"15.06389979","ELEMENT_SET_NO":"999","ARG_OF_PERICENTER":"47.4337","OBJECT_ID":"2020-073N","PERIAPSIS":"545.838","SEMIMAJOR_AXIS":"6925.379","PERIOD":"95.593","FILE":"3399963","TLE_LINE2":"2 46682  53.0555 178.9305 0002030  47.4337 312.6823 15.06389979 81963","BSTAR":"0.00022094000000","EPHEMERIS_TYPE":"0","CENTER_NAME":"EARTH","ECCENTRICITY":"0.00020300","DECAY_DATE":null,"REF_FRAME":"TEME","INCLINATION":"53.0555","MEAN_MOTION_DDOT":"0.0000000000000","CLASSIFICATION_TYPE":"U","EPOCH":"2022-04-13T12:29:00.040704","LAUNCH_DATE":"2020-10-18","SITE":"AFETR"},{"FILE":"3400454","ARG_OF_PERICENTER":"55.8565","OBJECT_ID":"2020-073Q","PERIAPSIS":"545.959","SEMIMAJOR_AXIS":"6925.412","PERIOD":"95.593","ELEMENT_SET_NO":"999","MEAN_ELEMENT_THEORY":"SGP4","MEAN_MOTION":"15.06379455","MEAN_MOTION_DOT":"0.00000511","MEAN_ANOMALY":"304.2604","OBJECT_NAME":"STARLINK-1780","TLE_LINE1":"1 46684U 20073Q   22103.57497682  .00000511  00000-0  53234-4 0  9994","COUNTRY_CODE":"US","REV_AT_EPOCH":"8218","RCS_SIZE":"LARGE","GP_ID":"201175114","APOAPSIS":"548.594","OBJECT_TYPE":"PAYLOAD","NORAD_CAT_ID":"46684","TIME_SYSTEM":"UTC","RA_OF_ASC_NODE":"163.6858","LAUNCH_DATE":"2020-10-18","SITE":"AFETR","EPOCH":"2022-04-13T13:47:57.997248","CLASSIFICATION_TYPE":"U","MEAN_MOTION_DDOT":"0.0000000000000","INCLINATION":"53.0555","REF_FRAME":"TEME","ECCENTRICITY":"0.00019020","DECAY_DATE":null,"EPHEMERIS_TYPE":"0","CENTER_NAME":"EARTH","TLE_LINE2":"2 46684  53.0555 163.6858 0001902  55.8565 304.2604 15.06379455 82189","BSTAR":"0.00005323400000"},{"SITE":"AFETR","LAUNCH_DATE":"2020-10-18","EPOCH":"2022-04-13T16:43:46.003872","CLASSIFICATION_TYPE":"U","MEAN_MOTION_DDOT":"0.0000000000000","INCLINATION":"53.0545","REF_FRAME":"TEME","DECAY_DATE":null,"ECCENTRICITY":"0.00018540","CENTER_NAME":"EARTH","EPHEMERIS_TYPE":"0","TLE_LINE2":"2 46685  53.0545 178.1589 0001854  46.3584 313.7558 15.06409346 81986","BSTAR":"0.00119260000000","FILE":"3400454","PERIOD":"95.592","PERIAPSIS":"545.901","SEMIMAJOR_AXIS":"6925.320","ARG_OF_PERICENTER":"46.3584","OBJECT_ID":"2020-073R","ELEMENT_SET_NO":"999","MEAN_MOTION":"15.06409346","MEAN_ELEMENT_THEORY":"SGP4","OBJECT_NAME":"STARLINK-1781","MEAN_ANOMALY":"313.7558","MEAN_MOTION_DOT":"0.00017531","TLE_LINE1":"1 46685U 20073R   22103.69706023  .00017531  00000-0  11926-2 0  9990","COUNTRY_CODE":"US","REV_AT_EPOCH":"8198","GP_ID":"201173862","RCS_SIZE":"LARGE","APOAPSIS":"548.469","NORAD_CAT_ID":"46685","OBJECT_TYPE":"PAYLOAD","TIME_SYSTEM":"UTC","RA_OF_ASC_NODE":"178.1589"},{"REV_AT_EPOCH":"8195","COUNTRY_CODE":"US","TIME_SYSTEM":"UTC","RA_OF_ASC_NODE":"179.1269","OBJECT_TYPE":"PAYLOAD","NORAD_CAT_ID":"46686","APOAPSIS":"548.481","RCS_SIZE":"LARGE","GP_ID":"201141065","MEAN_ELEMENT_THEORY":"SGP4","MEAN_MOTION":"15.06391815","ELEMENT_SET_NO":"999","ARG_OF_PERICENTER":"52.8013","OBJECT_ID":"2020-073S","PERIAPSIS":"545.996","PERIOD":"95.593","SEMIMAJOR_AXIS":"6925.374","FILE":"3399963","TLE_LINE1":"1 46686U 20073S   22103.47958880  .00001305  00000-0  10650-3 0  9993","MEAN_MOTION_DOT":"0.00001305","MEAN_ANOMALY":"307.3139","OBJECT_NAME":"STARLINK-1783","BSTAR":"0.00010650000000","TLE_LINE2":"2 46686  53.0546 179.1269 0001794  52.8013 307.3139 15.06391815 81958","EPHEMERIS_TYPE":"0","CENTER_NAME":"EARTH","ECCENTRICITY":"0.00017940","DECAY_DATE":null,"REF_FRAME":"TEME","MEAN_MOTION_DDOT":"0.0000000000000","CLASSIFICATION_TYPE":"U","EPOCH":"2022-04-13T11:30:36.472320","LAUNCH_DATE":"2020-10-18","SITE":"AFETR","INCLINATION":"53.0546"},{"TLE_LINE1":"1 46687U 20073T   22103.79796078  .00001793  00000-0  13928-3 0  9990","MEAN_MOTION_DOT":"0.00001793","MEAN_ANOMALY":"319.2394","OBJECT_NAME":"STARLINK-1784","MEAN_ELEMENT_THEORY":"SGP4","MEAN_MOTION":"15.06394333","ELEMENT_SET_NO":"999","ARG_OF_PERICENTER":"40.8741","OBJECT_ID":"2020-073T","SEMIMAJOR_AXIS":"6925.366","PERIAPSIS":"545.878","PERIOD":"95.592","FILE":"3400454","RA_OF_ASC_NODE":"142.6927","TIME_SYSTEM":"UTC","OBJECT_TYPE":"PAYLOAD","NORAD_CAT_ID":"46687","APOAPSIS":"548.583","RCS_SIZE":"LARGE","GP_ID":"201175364","REV_AT_EPOCH":"8249","COUNTRY_CODE":"US","INCLINATION":"53.0547","MEAN_MOTION_DDOT":"0.0000000000000","CLASSIFICATION_TYPE":"U","EPOCH":"2022-04-13T19:09:03.811392","LAUNCH_DATE":"2020-10-18","SITE":"AFETR","BSTAR":"0.00013928000000","TLE_LINE2":"2 46687  53.0547 142.6927 0001953  40.8741 319.2394 15.06394333 82491","EPHEMERIS_TYPE":"0","CENTER_NAME":"EARTH","ECCENTRICITY":"0.00019530","DECAY_DATE":null,"REF_FRAME":"TEME"},{"REV_AT_EPOCH":"8322","COUNTRY_CODE":"US","RA_OF_ASC_NODE":"178.4877","TIME_SYSTEM":"UTC","OBJECT_TYPE":"PAYLOAD","NORAD_CAT_ID":"46689","APOAPSIS":"548.447","RCS_SIZE":"LARGE","GP_ID":"201175615","MEAN_ELEMENT_THEORY":"SGP4","MEAN_MOTION":"15.06395988","ELEMENT_SET_NO":"999","ARG_OF_PERICENTER":"48.7648","OBJECT_ID":"2020-073V","PERIAPSIS":"546.005","PERIOD":"95.592","SEMIMAJOR_AXIS":"6925.361","FILE":"3400454","TLE_LINE1":"1 46689U 20073V   22103.62333915  .00002417  00000-0  18114-3 0  9997","MEAN_MOTION_DOT":"0.00002417","OBJECT_NAME":"STARLINK-1788","MEAN_ANOMALY":"311.3493","BSTAR":"0.00018114000000","TLE_LINE2":"2 46689  53.0532 178.4877 0001763  48.7648 311.3493 15.06395988 83222","EPHEMERIS_TYPE":"0","CENTER_NAME":"EARTH","ECCENTRICITY":"0.00017630","DECAY_DATE":null,"REF_FRAME":"TEME","MEAN_MOTION_DDOT":"0.0000000000000","CLASSIFICATION_TYPE":"U","EPOCH":"2022-04-13T14:57:36.502560","LAUNCH_DATE":"2020-10-18","SITE":"AFETR","INCLINATION":"53.0532"},{"COUNTRY_CODE":"US","REV_AT_EPOCH":"8232","APOAPSIS":"548.247","RCS_SIZE":"LARGE","GP_ID":"201174363","TIME_SYSTEM":"UTC","RA_OF_ASC_NODE":"153.4700","OBJECT_TYPE":"PAYLOAD","NORAD_CAT_ID":"46690","OBJECT_ID":"2020-073W","ARG_OF_PERICENTER":"66.9482","PERIAPSIS":"546.236","PERIOD":"95.593","SEMIMAJOR_AXIS":"6925.376","FILE":"3400454","MEAN_ELEMENT_THEORY":"SGP4","MEAN_MOTION":"15.06390995","ELEMENT_SET_NO":"999","MEAN_MOTION_DOT":"0.00000395","OBJECT_NAME":"STARLINK-1789","MEAN_ANOMALY":"293.1660","TLE_LINE1":"1 46690U 20073W   22103.62380888  .00000395  00000-0  45407-4 0  9999","ECCENTRICITY":"0.00014520","DECAY_DATE":null,"REF_FRAME":"TEME","TLE_LINE2":"2 46690  53.0546 153.4700 0001452  66.9482 293.1660 15.06390995 82326","BSTAR":"0.00004540700000","EPHEMERIS_TYPE":"0","CENTER_NAME":"EARTH","EPOCH":"2022-04-13T14:58:17.087232","LAUNCH_DATE":"2020-10-18","SITE":"AFETR","MEAN_MOTION_DDOT":"0.0000000000000","CLASSIFICATION_TYPE":"U","INCLINATION":"53.0546"},{"INCLINATION":"53.0521","SITE":"AFETR","LAUNCH_DATE":"2020-10-18","EPOCH":"2022-04-13T11:45:53.462304","CLASSIFICATION_TYPE":"U","MEAN_MOTION_DDOT":"0.0000000000000","REF_FRAME":"TEME","DECAY_DATE":null,"ECCENTRICITY":"0.00017360","CENTER_NAME":"EARTH","EPHEMERIS_TYPE":"0","BSTAR":"0.00095265000000","TLE_LINE2":"2 46691  53.0521 164.0865 0001736  47.9206 312.1930 15.06395883 82163","MEAN_ANOMALY":"312.1930","OBJECT_NAME":"STARLINK-1790","MEAN_MOTION_DOT":"0.00013935","TLE_LINE1":"1 46691U 20073X   22103.49020211  .00013935  00000-0  95265-3 0  9996","FILE":"3399963","PERIAPSIS":"546.024","SEMIMAJOR_AXIS":"6925.361","PERIOD":"95.592","ARG_OF_PERICENTER":"47.9206","OBJECT_ID":"2020-073X","ELEMENT_SET_NO":"999","MEAN_MOTION":"15.06395883","MEAN_ELEMENT_THEORY":"SGP4","GP_ID":"201141560","RCS_SIZE":"LARGE","APOAPSIS":"548.428","NORAD_CAT_ID":"46691","OBJECT_TYPE":"PAYLOAD","TIME_SYSTEM":"UTC","RA_OF_ASC_NODE":"164.0865","COUNTRY_CODE":"US","REV_AT_EPOCH":"8216"},{"ARG_OF_PERICENTER":"53.2360","OBJECT_ID":"2020-073Y","PERIAPSIS":"546.121","PERIOD":"95.592","SEMIMAJOR_AXIS":"6925.362","FILE":"3400211","MEAN_ELEMENT_THEORY":"SGP4","MEAN_MOTION":"15.06395479","ELEMENT_SET_NO":"999","MEAN_MOTION_DOT":"0.00013174","MEAN_ANOMALY":"306.8776","OBJECT_NAME":"STARLINK-1791","TLE_LINE1":"1 46692U 20073Y   22103.47591413  .00013174  00000-0  90174-3 0  9991","COUNTRY_CODE":"US","REV_AT_EPOCH":"8243","APOAPSIS":"548.334","RCS_SIZE":"LARGE","GP_ID":"201149799","RA_OF_ASC_NODE":"179.1320","TIME_SYSTEM":"UTC","OBJECT_TYPE":"PAYLOAD","NORAD_CAT_ID":"46692","EPOCH":"2022-04-13T11:25:18.980832","LAUNCH_DATE":"2020-10-18","SITE":"AFETR","MEAN_MOTION_DDOT":"0.0000000000000","CLASSIFICATION_TYPE":"U","INCLINATION":"53.0534","DECAY_DATE":null,"ECCENTRICITY":"0.00015980","REF_FRAME":"TEME","TLE_LINE2":"2 46692  53.0534 179.1320 0001598  53.2360 306.8776 15.06395479 82437","BSTAR":"0.00090174000000","EPHEMERIS_TYPE":"0","CENTER_NAME":"EARTH"}];
